SEEDS II (CO-66)        
1 32791U 08021J   26068.92109284  .00023758  00000+0  84213-3 0  9995
2 32791  97.7519  62.3611 0001448 359.2618   0.8619 15.29097235972108
STARLINK-32577          
1 62044U 24216N   26068.95112023  .00022907  00000+0  83936-3 0  9997
2 62044  43.0014 261.9382 0002100 264.7275  95.3337 15.27579015 73841
